start=new Date('2021-11-01T00:00:00.000Z').valueOf();
sats=[{"REV_AT_EPOCH":"5728","OBJECT_TYPE":"PAYLOAD","MEAN_ELEMENT_THEORY":"SGP4","SITE":"AFETR","CLASSIFICATION_TYPE":"U","APOAPSIS":"548.238","EPHEMERIS_TYPE":"0","COUNTRY_CODE":"US","TLE_LINE2":"2 46686  53.0545 193.9005 0001477  69.6210 290.4938 15.06399550 57284","ARG_OF_PERICENTER":"69.6210","RA_OF_ASC_NODE":"193.9005","ECCENTRICITY":"0.00014770","MEAN_MOTION_DOT":"-0.00000121","MEAN_ANOMALY":"290.4938","NORAD_CAT_ID":"46686","MEAN_MOTION_DDOT":"0.0000000000000","EPOCH":"2021-10-31T19:14:30.903648","GP_ID":"188607136","FILE":"3194950","MEAN_MOTION":"15.06399550","OBJECT_NAME":"STARLINK-1783","TIME_SYSTEM":"UTC","CENTER_NAME":"EARTH","ELEMENT_SET_NO":"999","LAUNCH_DATE":"2020-10-18","REF_FRAME":"TEME","TLE_LINE1":"1 46686U 20073S   21304.80174657 -.00000121  00000-0  10767-4 0  9990","BSTAR":"0.00001076700000","DECAY_DATE":null,"PERIAPSIS":"546.192","OBJECT_ID":"2020-073S","PERIOD":"95.592","SEMIMAJOR_AXIS":"6925.350","INCLINATION":"53.0545","RCS_SIZE":"LARGE"},{"BSTAR":"0.00008513500000","PERIAPSIS":"546.166","DECAY_DATE":null,"PERIOD":"95.592","OBJECT_ID":"2020-073T","RCS_SIZE":"LARGE","INCLINATION":"53.0544","SEMIMAJOR_AXIS":"6925.355","MEAN_MOTION":"15.06397903","FILE":"3194950","ELEMENT_SET_NO":"999","CENTER_NAME":"EARTH","TIME_SYSTEM":"UTC","OBJECT_NAME":"STARLINK-1784","LAUNCH_DATE":"2020-10-18","TLE_LINE1":"1 46687U 20073T   21304.85473931  .00000987  00000-0  85135-4 0  9993","REF_FRAME":"TEME","ARG_OF_PERICENTER":"86.9738","TLE_LINE2":"2 46687  53.0544 158.6545 0001522  86.9738 273.1425 15.06397903 57783","ECCENTRICITY":"0.00015220","RA_OF_ASC_NODE":"158.6545","MEAN_ANOMALY":"273.1425","MEAN_MOTION_DOT":"0.00000987","GP_ID":"188606391","EPOCH":"2021-10-31T20:30:49.476384","MEAN_MOTION_DDOT":"0.0000000000000","NORAD_CAT_ID":"46687","REV_AT_EPOCH":"5778","SITE":"AFETR","MEAN_ELEMENT_THEORY":"SGP4","OBJECT_TYPE":"PAYLOAD","CLASSIFICATION_TYPE":"U","COUNTRY_CODE":"US","EPHEMERIS_TYPE":"0","APOAPSIS":"548.274"},{"PERIOD":"93.179","OBJECT_ID":"2020-073U","SEMIMAJOR_AXIS":"6808.318","RCS_SIZE":"LARGE","INCLINATION":"53.0542","BSTAR":"0.00628310000000","PERIAPSIS":"429.391","DECAY_DATE":null,"LAUNCH_DATE":"2020-10-18","REF_FRAME":"TEME","TLE_LINE1":"1 46688U 20073U   21304.87325290  .00317657  00000-0  62831-2 0  9991","FILE":"3194950","MEAN_MOTION":"15.45407495","TIME_SYSTEM":"UTC","OBJECT_NAME":"STARLINK-1786","CENTER_NAME":"EARTH","ELEMENT_SET_NO":"999","MEAN_ANOMALY":"249.5683","MEAN_MOTION_DOT":"0.00317657","NORAD_CAT_ID":"46688","GP_ID":"188606641","EPOCH":"2021-10-31T20:57:29.050560","MEAN_MOTION_DDOT":"0.0000000000000","ARG_OF_PERICENTER":"110.5448","TLE_LINE2":"2 46688  53.0542 179.2315 0001163 110.5448 249.5683 15.45407495 57503","RA_OF_ASC_NODE":"179.2315","ECCENTRICITY":"0.00011630","CLASSIFICATION_TYPE":"U","APOAPSIS":"430.975","EPHEMERIS_TYPE":"0","COUNTRY_CODE":"US","REV_AT_EPOCH":"5750","OBJECT_TYPE":"PAYLOAD","MEAN_ELEMENT_THEORY":"SGP4","SITE":"AFETR"},{"GP_ID":"188607393","MEAN_MOTION_DDOT":"0.0000000000000","EPOCH":"2021-10-31T19:30:26.542944","NORAD_CAT_ID":"46689","MEAN_ANOMALY":"282.4602","MEAN_MOTION_DOT":"-0.00000880","ECCENTRICITY":"0.00015980","RA_OF_ASC_NODE":"193.8584","ARG_OF_PERICENTER":"77.6565","TLE_LINE2":"2 46689  53.0544 193.8584 0001598  77.6565 282.4602 15.06399151 58538","EPHEMERIS_TYPE":"0","COUNTRY_CODE":"US","APOAPSIS":"548.323","CLASSIFICATION_TYPE":"U","SITE":"AFETR","MEAN_ELEMENT_THEORY":"SGP4","OBJECT_TYPE":"PAYLOAD","REV_AT_EPOCH":"5853","RCS_SIZE":"LARGE","INCLINATION":"53.0544","SEMIMAJOR_AXIS":"6925.351","PERIOD":"95.592","OBJECT_ID":"2020-073V","PERIAPSIS":"546.109","DECAY_DATE":null,"BSTAR":"-0.00004020100000","TLE_LINE1":"1 46689U 20073V   21304.81280721 -.00000880  00000-0 -40201-4 0  9993","REF_FRAME":"TEME","LAUNCH_DATE":"2020-10-18","ELEMENT_SET_NO":"999","CENTER_NAME":"EARTH","TIME_SYSTEM":"UTC","OBJECT_NAME":"STARLINK-1788","MEAN_MOTION":"15.06399151","FILE":"3194950"},{"MEAN_ELEMENT_THEORY":"SGP4","SITE":"AFETR","OBJECT_TYPE":"PAYLOAD","REV_AT_EPOCH":"5764","COUNTRY_CODE":"US","EPHEMERIS_TYPE":"0","APOAPSIS":"548.213","CLASSIFICATION_TYPE":"U","ECCENTRICITY":"0.00014350","RA_OF_ASC_NODE":"168.5418","TLE_LINE2":"2 46690  53.0541 168.5418 0001435  68.7232 291.3910 15.06398136 57648","ARG_OF_PERICENTER":"68.7232","MEAN_MOTION_DDOT":"0.0000000000000","EPOCH":"2021-10-31T21:06:39.314016","GP_ID":"188607637","NORAD_CAT_ID":"46690","MEAN_MOTION_DOT":"0.00001552","MEAN_ANOMALY":"291.3910","ELEMENT_SET_NO":"999","CENTER_NAME":"EARTH","OBJECT_NAME":"STARLINK-1789","TIME_SYSTEM":"UTC","MEAN_MOTION":"15.06398136","FILE":"3194950","TLE_LINE1":"1 46690U 20073W   21304.87962169  .00001552  00000-0  12304-3 0  9991","REF_FRAME":"TEME","LAUNCH_DATE":"2020-10-18","DECAY_DATE":null,"PERIAPSIS":"546.225","BSTAR":"0.00012304000000","INCLINATION":"53.0541","RCS_SIZE":"LARGE","SEMIMAJOR_AXIS":"6925.354","OBJECT_ID":"2020-073W","PERIOD":"95.592"},{"CLASSIFICATION_TYPE":"U","COUNTRY_CODE":"US","EPHEMERIS_TYPE":"0","APOAPSIS":"548.470","REV_AT_EPOCH":"5748","MEAN_ELEMENT_THEORY":"SGP4","SITE":"AFETR","OBJECT_TYPE":"PAYLOAD","MEAN_MOTION_DOT":"0.00000792","MEAN_ANOMALY":"283.3355","EPOCH":"2021-10-31T17:54:14.623776","MEAN_MOTION_DDOT":"0.0000000000000","GP_ID":"188605891","NORAD_CAT_ID":"46691","TLE_LINE2":"2 46691  53.0550 179.1568 0001781  76.7832 283.3355 15.06392539 57489","ARG_OF_PERICENTER":"76.7832","ECCENTRICITY":"0.00017810","RA_OF_ASC_NODE":"179.1568","LAUNCH_DATE":"2020-10-18","TLE_LINE1":"1 46691U 20073X   21304.74600259  .00000792  00000-0  72057-4 0  9994","REF_FRAME":"TEME","MEAN_MOTION":"15.06392539","FILE":"3194950","CENTER_NAME":"EARTH","ELEMENT_SET_NO":"999","OBJECT_NAME":"STARLINK-1790","TIME_SYSTEM":"UTC","OBJECT_ID":"2020-073X","PERIOD":"95.593","INCLINATION":"53.0550","RCS_SIZE":"LARGE","SEMIMAJOR_AXIS":"6925.371","BSTAR":"0.00007205700000","DECAY_DATE":null,"PERIAPSIS":"546.003"},{"REF_FRAME":"TEME","TLE_LINE1":"1 46692U 20073Y   21304.39997511  .00001081  00000-0  91429-4 0  9992","LAUNCH_DATE":"2020-10-18","OBJECT_NAME":"STARLINK-1791","TIME_SYSTEM":"UTC","CENTER_NAME":"EARTH","ELEMENT_SET_NO":"999","FILE":"3194431","MEAN_MOTION":"15.06401643","SEMIMAJOR_AXIS":"6925.344","INCLINATION":"53.0539","RCS_SIZE":"LARGE","OBJECT_ID":"2020-073Y","PERIOD":"95.592","DECAY_DATE":null,"PERIAPSIS":"546.043","BSTAR":"0.00009142900000","APOAPSIS":"548.374","COUNTRY_CODE":"US","EPHEMERIS_TYPE":"0","CLASSIFICATION_TYPE":"U","OBJECT_TYPE":"PAYLOAD","MEAN_ELEMENT_THEORY":"SGP4","SITE":"AFETR","REV_AT_EPOCH":"5722","NORAD_CAT_ID":"46692","MEAN_MOTION_DDOT":"0.0000000000000","EPOCH":"2021-10-31T09:35:57.849504","GP_ID":"188571246","MEAN_MOTION_DOT":"0.00001081","MEAN_ANOMALY":"286.2102","RA_OF_ASC_NODE":"195.7077","ECCENTRICITY":"0.00016830","TLE_LINE2":"2 46692  53.0539 195.7077 0001683  73.9072 286.2102 15.06401643 57223","ARG_OF_PERICENTER":"73.9072"},{"PERIAPSIS":"545.975","DECAY_DATE":null,"BSTAR":"-0.00005250300000","RCS_SIZE":"LARGE","INCLINATION":"53.0546","SEMIMAJOR_AXIS":"6925.364","PERIOD":"95.592","OBJECT_ID":"2020-073Z","CENTER_NAME":"EARTH","ELEMENT_SET_NO":"999","TIME_SYSTEM":"UTC","OBJECT_NAME":"STARLINK-1792","MEAN_MOTION":"15.06395082","FILE":"3194950","TLE_LINE1":"1 46693U 20073Z   21304.81603588 -.00001063  00000-0 -52503-4 0  9990","REF_FRAME":"TEME","LAUNCH_DATE":"2020-10-18","ECCENTRICITY":"0.00018100","RA_OF_ASC_NODE":"178.8358","ARG_OF_PERICENTER":"79.1172","TLE_LINE2":"2 46693  53.0546 178.8358 0001810  79.1172 281.0020 15.06395082 57497","GP_ID":"188606893","MEAN_MOTION_DDOT":"0.0000000000000","EPOCH":"2021-10-31T19:35:05.500032","NORAD_CAT_ID":"46693","MEAN_ANOMALY":"281.0020","MEAN_MOTION_DOT":"-0.00001063","MEAN_ELEMENT_THEORY":"SGP4","SITE":"AFETR","OBJECT_TYPE":"PAYLOAD","REV_AT_EPOCH":"5749","EPHEMERIS_TYPE":"0","COUNTRY_CODE":"US","APOAPSIS":"548.482","CLASSIFICATION_TYPE":"U"},{"PERIAPSIS":"545.285","DECAY_DATE":null,"BSTAR":"0.00004751700000","RCS_SIZE":"LARGE","INCLINATION":"53.0557","SEMIMAJOR_AXIS":"6925.389","PERIOD":"95.593","OBJECT_ID":"2020-073AA","ELEMENT_SET_NO":"999","CENTER_NAME":"EARTH","TIME_SYSTEM":"UTC","OBJECT_NAME":"STARLINK-1793","MEAN_MOTION":"15.06386965","FILE":"3194950","TLE_LINE1":"1 46694U 20073AA  21304.83999702  .00000426  00000-0  47517-4 0  9998","REF_FRAME":"TEME","LAUNCH_DATE":"2020-10-18","ECCENTRICITY":"0.00028430","RA_OF_ASC_NODE":"158.7417","ARG_OF_PERICENTER":"204.4910","TLE_LINE2":"2 46694  53.0557 158.7417 0002843 204.4910 155.5944 15.06386965 57785","GP_ID":"188607137","MEAN_MOTION_DDOT":"0.0000000000000","EPOCH":"2021-10-31T20:09:35.742528","NORAD_CAT_ID":"46694","MEAN_ANOMALY":"155.5944","MEAN_MOTION_DOT":"0.00000426","MEAN_ELEMENT_THEORY":"SGP4","SITE":"AFETR","OBJECT_TYPE":"PAYLOAD","REV_AT_EPOCH":"5778","COUNTRY_CODE":"US","EPHEMERIS_TYPE":"0","APOAPSIS":"549.222","CLASSIFICATION_TYPE":"U"},{"MEAN_ANOMALY":"278.0453","MEAN_MOTION_DOT":"0.00000218","NORAD_CAT_ID":"46696","GP_ID":"188606392","MEAN_MOTION_DDOT":"0.0000000000000","EPOCH":"2021-10-31T20:36:07.827552","ARG_OF_PERICENTER":"82.0717","TLE_LINE2":"2 46696  53.0542 158.6376 0001593  82.0717 278.0453 15.06400732 57785","RA_OF_ASC_NODE":"158.6376","ECCENTRICITY":"0.00015930","CLASSIFICATION_TYPE":"U","APOAPSIS":"548.315","EPHEMERIS_TYPE":"0","COUNTRY_CODE":"US","REV_AT_EPOCH":"5778","OBJECT_TYPE":"PAYLOAD","MEAN_ELEMENT_THEORY":"SGP4","SITE":"AFETR","PERIOD":"95.592","OBJECT_ID":"2020-073AC","SEMIMAJOR_AXIS":"6925.346","RCS_SIZE":"LARGE","INCLINATION":"53.0542","BSTAR":"0.00003350200000","PERIAPSIS":"546.108","DECAY_DATE":null,"LAUNCH_DATE":"2020-10-18","REF_FRAME":"TEME","TLE_LINE1":"1 46696U 20073AC  21304.85842393  .00000218  00000-0  33502-4 0  9993","FILE":"3194950","MEAN_MOTION":"15.06400732","TIME_SYSTEM":"UTC","OBJECT_NAME":"STARLINK-1795","CENTER_NAME":"EARTH","ELEMENT_SET_NO":"999"}];
